#aV2006  6  1  0  0   .00000000      96 DD+AD WGS84 FIT  NGA
## 1377 345600.00000000   900.00000000 53887  .0000000000000
+   29     1  2  3  4  5  6  7  8  9 10 11 13 14 15 16 17 18
+         19 20 21 22 23 24 25 26 27 28 29 30  0  0  0  0  0
+          0  0  0  0  0  0  0  0  0  0  0  0  0  0  0  0  0
+          0  0  0  0  0  0  0  0  0  0  0  0  0  0  0  0  0
+          0  0  0  0  0  0  0  0  0  0  0  0  0  0  0  0  0
++         0  0  0  0  0  0  0  0  0  0  0  0  0  0  0  0  0
++         0  0  0  0  0  0  0  0  0  0  0  0  0  0  0  0  0
++         0  0  0  0  0  0  0  0  0  0  0  0  0  0  0  0  0
++         0  0  0  0  0  0  0  0  0  0  0  0  0  0  0  0  0
++         0  0  0  0  0  0  0  0  0  0  0  0  0  0  0  0  0
%c cc cc ccc ccc cccc cccc cccc cccc ccccc ccccc ccccc ccccc
%c cc cc ccc ccc cccc cccc cccc cccc ccccc ccccc ccccc ccccc
%f  0.0000000  0.000000000  0.00000000000  0.000000000000000
%f  0.0000000  0.000000000  0.00000000000  0.000000000000000
%i    0    0    0    0      0      0      0      0         0
%i    0    0    0    0      0      0      0      0         0
/*      NGA, ST. LOUIS,MO.                                  
/*   EPHEMERIS COMPUTED FROM  3 DAYS OF DATA                
/* CCCCCCCCCCCCCCCCCCCCCCCCCCCCCCCCCCCCCCCCCCCCCCCCCCCCCCCCC
/* CCCCCCCCCCCCCCCCCCCCCCCCCCCCCCCCCCCCCCCCCCCCCCCCCCCCCCCCC
*  2006  6  1  0 15   .00000000                                                 
P  1  15223.761434 -21303.001973   4495.540522     56.470991                    
V  1   5089.547528  -2756.002616 -31703.522435       .024647                    
P  2  -9217.806383  13423.049747  20686.531750      1.357053                    
V  2 -26401.557557  -5453.150142  -8330.661217       .029248                    
P  3   9308.769313 -23569.081601  -7573.635157    103.143697                    
V  3   8602.578048  -5655.805805  29105.883534       .030578                    
P  4 -20462.944320   7354.093346  15446.328000    243.467279                    
V  4 -18854.349370  -5617.784800 -21903.659515       .087709                    
P  5  13321.309500  22808.847087   3349.618726     69.530938                    
V  5  -1173.409231   5494.208198 -30742.294033       .480849                    
P  6  16153.995039   4358.739007  20837.758572    547.666842                    
V  6 -15381.298389  21107.308236   7505.799413       .145228                    
P  7  19652.664779 -15951.195015   8607.342333    539.910645                    
V  7  -3677.544582  10296.734299  28486.851724       .015646                    
P  8 -25189.581987    944.654880  -9138.372540    -67.496227                    
V  8 -10623.205924  -4180.179077  28915.655175      -.012872                    
P  9  12945.324745  14790.283464 -18543.691234     22.524793                    
V  9 -22296.863709  -1728.096946 -17189.438393       .014994                    
P 10   -675.785290  23401.850163  12143.043628     84.306946                    
V 10  -7233.821054 -14079.290751  26818.493965       .006622                    
P 11 -15388.502875 -13811.391781 -16863.703085    330.596108                    
V 11  21488.500453  -2139.005122 -17677.073836       .023444                    
P 13 -15206.553122  -3805.972411  21340.848582     66.007351                    
V 13  17548.963789 -20836.582168   8807.869801       .028589                    
P 14  20386.818048 -13640.468343 -10054.889039    -12.899503                    
V 14  -6934.027156  10971.397263 -28806.201403       .007804                    
P 15  25133.438348   -498.830387  -9345.654122    621.502322                    
V 15  10624.267339   5027.860339  28383.149269       .060078                    
P 16   4861.387373 -20335.365409  16403.772712     46.491018                    
V 16   8753.604126  18857.515784  21001.645955       .025265                    
P 17 -20558.115006  12630.519891 -11001.054257     96.240859                    
V 17   7021.087836 -12366.367789 -27429.683484       .021213                    
P 18  16627.495167   9966.214268 -18190.666402   -237.586978                    
V 18   5694.269032  22535.797005  17152.751136      -.015042                    
P 19   1887.647002 -19864.533566 -17395.298023     -7.894619                    
V 19  16601.426289 -15043.246786  18908.417086       .020648                    
P 20 -13329.854824 -21990.686765   6616.878341    -26.051329                    
V 20   -419.897882  -8956.776579 -30149.762942       .005517                    
P 21  26333.194873   5254.770042   -406.138375     32.535552                    
V 21    -30.631100   2954.295263  31016.662347       .025522                    
P 22  14246.980529  -5548.127888 -21566.660261    101.880628                    
V 22   8374.298108  26473.194834  -1280.474533       .039747                    
P 23  -7029.490210 -14287.720441  21135.084034    140.407653                    
V 23  17844.988689 -20364.329825  -7952.954683      -.007179                    
P 24 -25747.926802   -581.692046   7274.982920     10.053203                    
V 24  -8115.012944  -4305.480266 -29772.304991       .027490                    
P 25  15440.212632 -11930.986090  18480.772029    181.538267                    
V 25  22446.054781   3194.895828 -16927.747516       .831815                    
P 26  -3793.231356  20593.536387 -16359.860711   -132.480416                    
V 26 -14490.445986  14190.688745  22317.618532      -.118878                    
P 27 -26341.984671  -4349.279900   2057.200387     51.356148                    
V 27   2133.545443  -2346.449054  31363.404170       .017146                    
P 28 -15439.483902   1066.506650 -21330.204961     26.209636                    
V 28  -8819.770451 -26296.110084   4664.073270      -.008293                    
P 29  -7076.699768  21928.601448 -12723.029583    613.401041                    
V 29 -11973.108503  11650.940278  26531.725792       .054362                    
P 30  16891.508257  15084.580322  13693.394629    268.986955                    
V 30   4386.702104  17491.853110 -24069.085450       .116046                    
EOF
